{
  "norad_id": 65332,
  "name": "STARLINK-33890",
  "history": [
    {
      "epoch": "2026-03-28T19:08:06.181728",
      "apogee_km": 476.21904766945045,
      "perigee_km": 474.18470255776174,
      "latitude_deg": -16.280149539148464,
      "longitude_deg": 69.74020191980526,
      "semi_major_axis_km": 6853.338875113606,
      "eccentricity": 0.00014842,
      "inclination_deg": 53.1607,
      "raan_deg": 117.881,
      "arg_perigee_deg": 86.3145,
      "mean_anomaly_deg": 273.8026,
      "mean_motion_rev_day": 15.30204419
    },
    {
      "epoch": "2026-03-29T01:24:18.853920",
      "apogee_km": 476.2241136517687,
      "perigee_km": 474.12288865211576,
      "latitude_deg": 51.865683602951876,
      "longitude_deg": 94.82094879983924,
      "semi_major_axis_km": 6853.310501151942,
      "eccentricity": 0.0001533,
      "inclination_deg": 53.1588,
      "raan_deg": 116.6701,
      "arg_perigee_deg": 83.7723,
      "mean_anomaly_deg": 276.3452,
      "mean_motion_rev_day": 15.30213922
    }
  ]
}